start=new Date('2023-01-07T00:00:00.000Z').valueOf();
sats=[{"MEAN_ANOMALY":"328.7929","GP_ID":"222344851","EPOCH":"2023-01-06T16:45:39.354624","ECCENTRICITY":"0.00024870","ELEMENT_SET_NO":"999","CLASSIFICATION_TYPE":"U","BSTAR":"-0.00031708000000","CENTER_NAME":"EARTH","SEMIMAJOR_AXIS":"6917.920","OBJECT_NAME":"STARLINK-3520","MEAN_MOTION_DDOT":"0.0000000000000","TLE_LINE1":"1 51741U 22016AD  23006.69837216 -.00005330  00000-0 -31708-3 0  9997","MEAN_MOTION_DOT":"-0.00005330","EPHEMERIS_TYPE":"0","TLE_LINE2":"2 51741  53.2164 117.5547 0002487  31.3211 328.7929 15.08827155 48748","RCS_SIZE":"LARGE","MEAN_ELEMENT_THEORY":"SGP4","ARG_OF_PERICENTER":"31.3211","APOAPSIS":"541.505","NORAD_CAT_ID":"51741","TIME_SYSTEM":"UTC","REF_FRAME":"TEME","PERIAPSIS":"538.064","PERIOD":"95.438","LAUNCH_DATE":"2022-02-21","RA_OF_ASC_NODE":"117.5547","COUNTRY_CODE":"US","REV_AT_EPOCH":"4874","INCLINATION":"53.2164","FILE":"3734255","OBJECT_ID":"2022-016AD","MEAN_MOTION":"15.08827155","SITE":"AFETR","OBJECT_TYPE":"PAYLOAD","DECAY_DATE":null},{"OBJECT_NAME":"STARLINK-3521","SEMIMAJOR_AXIS":"6917.900","CENTER_NAME":"EARTH","BSTAR":"0.00006365600000","CLASSIFICATION_TYPE":"U","ELEMENT_SET_NO":"999","ECCENTRICITY":"0.00026580","EPOCH":"2023-01-06T16:24:29.037888","GP_ID":"222344099","MEAN_ANOMALY":"306.6376","DECAY_DATE":null,"MEAN_MOTION":"15.08833612","SITE":"AFETR","OBJECT_TYPE":"PAYLOAD","OBJECT_ID":"2022-016AE","FILE":"3734255","INCLINATION":"53.2181","REV_AT_EPOCH":"4874","COUNTRY_CODE":"US","RA_OF_ASC_NODE":"117.6186","LAUNCH_DATE":"2022-02-21","PERIOD":"95.438","PERIAPSIS":"537.926","REF_FRAME":"TEME","TIME_SYSTEM":"UTC","NORAD_CAT_ID":"51742","APOAPSIS":"541.604","ARG_OF_PERICENTER":"53.4860","MEAN_ELEMENT_THEORY":"SGP4","RCS_SIZE":"LARGE","TLE_LINE2":"2 51742  53.2181 117.6186 0002658  53.4860 306.6376 15.08833612 48749","EPHEMERIS_TYPE":"0","MEAN_MOTION_DOT":"0.00000725","MEAN_MOTION_DDOT":"0.0000000000000","TLE_LINE1":"1 51742U 22016AE  23006.68366942  .00000725  00000-0  63656-4 0  9999"},{"OBJECT_NAME":"STARLINK-3512","SEMIMAJOR_AXIS":"6917.870","CENTER_NAME":"EARTH","BSTAR":"0.00019484000000","ELEMENT_SET_NO":"999","CLASSIFICATION_TYPE":"U","ECCENTRICITY":"0.00029140","EPOCH":"2023-01-06T13:52:07.553280","GP_ID":"222315259","MEAN_ANOMALY":"311.9362","SITE":"AFETR","OBJECT_TYPE":"PAYLOAD","MEAN_MOTION":"15.08843301","DECAY_DATE":null,"OBJECT_ID":"2022-016AF","INCLINATION":"53.2189","FILE":"3733992","REV_AT_EPOCH":"4999","COUNTRY_CODE":"US","LAUNCH_DATE":"2022-02-21","PERIOD":"95.437","RA_OF_ASC_NODE":"108.0830","REF_FRAME":"TEME","PERIAPSIS":"537.719","TIME_SYSTEM":"UTC","APOAPSIS":"541.751","NORAD_CAT_ID":"51743","ARG_OF_PERICENTER":"48.1879","MEAN_ELEMENT_THEORY":"SGP4","RCS_SIZE":"LARGE","EPHEMERIS_TYPE":"0","TLE_LINE2":"2 51743  53.2189 108.0830 0002914  48.1879 311.9362 15.08843301 49992","TLE_LINE1":"1 51743U 22016AF  23006.57786520  .00002814  00000-0  19484-3 0  9996","MEAN_MOTION_DDOT":"0.0000000000000","MEAN_MOTION_DOT":"0.00002814"},{"MEAN_MOTION_DDOT":"0.0000000000000","TLE_LINE1":"1 51744U 22016AG  23006.41228587 -.00011424  00000-0 -70114-3 0  9990","MEAN_MOTION_DOT":"-0.00011424","MEAN_ELEMENT_THEORY":"SGP4","ARG_OF_PERICENTER":"31.6230","EPHEMERIS_TYPE":"0","TLE_LINE2":"2 51744  53.2155 118.8356 0002646  31.6230 328.4921 15.08819949 48701","RCS_SIZE":"LARGE","REF_FRAME":"TEME","PERIAPSIS":"537.976","PERIOD":"95.439","LAUNCH_DATE":"2022-02-21","RA_OF_ASC_NODE":"118.8356","APOAPSIS":"541.637","NORAD_CAT_ID":"51744","TIME_SYSTEM":"UTC","OBJECT_ID":"2022-016AG","MEAN_MOTION":"15.08819949","SITE":"AFETR","OBJECT_TYPE":"PAYLOAD","DECAY_DATE":null,"COUNTRY_CODE":"US","REV_AT_EPOCH":"4870","INCLINATION":"53.2155","FILE":"3734255","MEAN_ANOMALY":"328.4921","GP_ID":"222344601","ECCENTRICITY":"0.00026460","ELEMENT_SET_NO":"999","CLASSIFICATION_TYPE":"U","EPOCH":"2023-01-06T09:53:41.499168","BSTAR":"-0.00070114000000","SEMIMAJOR_AXIS":"6917.942","OBJECT_NAME":"STARLINK-3452","CENTER_NAME":"EARTH"},{"BSTAR":"-0.00063357000000","OBJECT_NAME":"STARLINK-3449","SEMIMAJOR_AXIS":"6917.959","CENTER_NAME":"EARTH","GP_ID":"222315541","MEAN_ANOMALY":"321.6230","CLASSIFICATION_TYPE":"U","ELEMENT_SET_NO":"999","ECCENTRICITY":"0.00026670","EPOCH":"2023-01-06T13:24:17.001504","RA_OF_ASC_NODE":"118.1784","LAUNCH_DATE":"2022-02-21","PERIOD":"95.439","PERIAPSIS":"537.979","REF_FRAME":"TEME","TIME_SYSTEM":"UTC","NORAD_CAT_ID":"51745","APOAPSIS":"541.669","DECAY_DATE":null,"SITE":"AFETR","OBJECT_TYPE":"PAYLOAD","MEAN_MOTION":"15.08814417","OBJECT_ID":"2022-016AH","FILE":"3733992","INCLINATION":"53.2158","REV_AT_EPOCH":"4985","COUNTRY_CODE":"US","MEAN_MOTION_DOT":"-0.00010351","MEAN_MOTION_DDOT":"0.0000000000000","TLE_LINE1":"1 51745U 22016AH  23006.55853011 -.00010351  00000-0 -63357-3 0  9991","ARG_OF_PERICENTER":"38.4952","MEAN_ELEMENT_THEORY":"SGP4","RCS_SIZE":"LARGE","TLE_LINE2":"2 51745  53.2158 118.1784 0002667  38.4952 321.6230 15.08814417 49852","EPHEMERIS_TYPE":"0"},{"EPHEMERIS_TYPE":"0","TLE_LINE2":"2 51746  53.2187 108.1056 0003057  21.9241 338.1881 15.08816030 49980","RCS_SIZE":"LARGE","MEAN_ELEMENT_THEORY":"SGP4","ARG_OF_PERICENTER":"21.9241","TLE_LINE1":"1 51746U 22016AJ  23006.57417541 -.00009191  00000-0 -56037-3 0  9995","MEAN_MOTION_DDOT":"0.0000000000000","MEAN_MOTION_DOT":"-0.00009191","REV_AT_EPOCH":"4998","COUNTRY_CODE":"US","INCLINATION":"53.2187","FILE":"3733992","OBJECT_ID":"2022-016AJ","SITE":"AFETR","MEAN_MOTION":"15.08816030","OBJECT_TYPE":"PAYLOAD","DECAY_DATE":null,"APOAPSIS":"541.933","NORAD_CAT_ID":"51746","TIME_SYSTEM":"UTC","REF_FRAME":"TEME","PERIAPSIS":"537.704","PERIOD":"95.439","LAUNCH_DATE":"2022-02-21","RA_OF_ASC_NODE":"108.1056","EPOCH":"2023-01-06T13:46:48.755424","ECCENTRICITY":"0.00030570","ELEMENT_SET_NO":"999","CLASSIFICATION_TYPE":"U","MEAN_ANOMALY":"338.1881","GP_ID":"222315544","CENTER_NAME":"EARTH","SEMIMAJOR_AXIS":"6917.954","OBJECT_NAME":"STARLINK-3502","BSTAR":"-0.00056037000000"},{"ARG_OF_PERICENTER":"33.5514","MEAN_ELEMENT_THEORY":"SGP4","RCS_SIZE":"LARGE","TLE_LINE2":"2 51747  53.2155 117.6362 0002733  33.5514 326.5650 15.08835614 48740","EPHEMERIS_TYPE":"0","MEAN_MOTION_DOT":"0.00002385","TLE_LINE1":"1 51747U 22016AK  23006.67999065  .00002385  00000-0  16795-3 0  9996","MEAN_MOTION_DDOT":"0.0000000000000","DECAY_DATE":null,"SITE":"AFETR","MEAN_MOTION":"15.08835614","OBJECT_TYPE":"PAYLOAD","OBJECT_ID":"2022-016AK","FILE":"3734255","INCLINATION":"53.2155","REV_AT_EPOCH":"4874","COUNTRY_CODE":"US","RA_OF_ASC_NODE":"117.6362","LAUNCH_DATE":"2022-02-21","PERIOD":"95.438","PERIAPSIS":"537.868","REF_FRAME":"TEME","TIME_SYSTEM":"UTC","NORAD_CAT_ID":"51747","APOAPSIS":"541.649","CLASSIFICATION_TYPE":"U","ELEMENT_SET_NO":"999","ECCENTRICITY":"0.00027330","EPOCH":"2023-01-06T16:19:11.192160","GP_ID":"222343850","MEAN_ANOMALY":"326.5650","OBJECT_NAME":"STARLINK-3446","SEMIMAJOR_AXIS":"6917.894","CENTER_NAME":"EARTH","BSTAR":"0.00016795000000"},{"BSTAR":"-0.00029516000000","CENTER_NAME":"EARTH","OBJECT_NAME":"STARLINK-3501","SEMIMAJOR_AXIS":"6917.946","GP_ID":"222315273","MEAN_ANOMALY":"336.2320","EPOCH":"2023-01-06T13:36:14.521536","ELEMENT_SET_NO":"999","CLASSIFICATION_TYPE":"U","ECCENTRICITY":"0.00026010","TIME_SYSTEM":"UTC","APOAPSIS":"541.610","NORAD_CAT_ID":"51748","LAUNCH_DATE":"2022-02-21","PERIOD":"95.439","RA_OF_ASC_NODE":"108.1463","REF_FRAME":"TEME","PERIAPSIS":"538.011","INCLINATION":"53.2168","FILE":"3733993","COUNTRY_CODE":"US","REV_AT_EPOCH":"4992","SITE":"AFETR","MEAN_MOTION":"15.08818654","OBJECT_TYPE":"PAYLOAD","DECAY_DATE":null,"OBJECT_ID":"2022-016AL","MEAN_MOTION_DDOT":"0.0000000000000","TLE_LINE1":"1 51748U 22016AL  23006.56683474 -.00004980  00000-0 -29516-3 0  9999","MEAN_MOTION_DOT":"-0.00004980","RCS_SIZE":"LARGE","EPHEMERIS_TYPE":"0","TLE_LINE2":"2 51748  53.2168 108.1463 0002601  23.8792 336.2320 15.08818654 49924","ARG_OF_PERICENTER":"23.8792","MEAN_ELEMENT_THEORY":"SGP4"},{"GP_ID":"222315268","MEAN_ANOMALY":"288.6252","EPOCH":"2023-01-06T13:52:09.755616","ELEMENT_SET_NO":"999","CLASSIFICATION_TYPE":"U","ECCENTRICITY":"0.00033540","BSTAR":"0.00001999100000","CENTER_NAME":"EARTH","OBJECT_NAME":"STARLINK-3451","SEMIMAJOR_AXIS":"6917.864","TLE_LINE1":"1 51749U 22016AM  23006.57789069  .00000029  00000-0  19991-4 0  9993","MEAN_MOTION_DDOT":"0.0000000000000","MEAN_MOTION_DOT":"0.00000029","RCS_SIZE":"LARGE","EPHEMERIS_TYPE":"0","TLE_LINE2":"2 51749  53.2154 118.0868 0003354  71.5104 288.6252 15.08845267 49836","ARG_OF_PERICENTER":"71.5104","MEAN_ELEMENT_THEORY":"SGP4","TIME_SYSTEM":"UTC","APOAPSIS":"542.050","NORAD_CAT_ID":"51749","PERIOD":"95.437","LAUNCH_DATE":"2022-02-21","RA_OF_ASC_NODE":"118.0868","REF_FRAME":"TEME","PERIAPSIS":"537.409","INCLINATION":"53.2154","FILE":"3733993","REV_AT_EPOCH":"4983","COUNTRY_CODE":"US","OBJECT_TYPE":"PAYLOAD","SITE":"AFETR","MEAN_MOTION":"15.08845267","DECAY_DATE":null,"OBJECT_ID":"2022-016AM"},{"EPOCH":"2023-01-06T13:25:36.445440","ELEMENT_SET_NO":"999","CLASSIFICATION_TYPE":"U","ECCENTRICITY":"0.00024430","GP_ID":"222315553","MEAN_ANOMALY":"336.1447","CENTER_NAME":"EARTH","OBJECT_NAME":"STARLINK-3505","SEMIMAJOR_AXIS":"6917.975","BSTAR":"-0.00081682000000","RCS_SIZE":"LARGE","EPHEMERIS_TYPE":"0","TLE_LINE2":"2 51750  53.2174 108.1758 0002443  23.9658 336.1447 15.08809004 49981","ARG_OF_PERICENTER":"23.9658","MEAN_ELEMENT_THEORY":"SGP4","MEAN_MOTION_DDOT":"0.0000000000000","TLE_LINE1":"1 51750U 22016AN  23006.55944960 -.00013254  00000-0 -81682-3 0  9997","MEAN_MOTION_DOT":"-0.00013254","INCLINATION":"53.2174","FILE":"3733993","REV_AT_EPOCH":"4998","COUNTRY_CODE":"US","SITE":"AFETR","OBJECT_TYPE":"PAYLOAD","MEAN_MOTION":"15.08809004","DECAY_DATE":null,"OBJECT_ID":"2022-016AN","TIME_SYSTEM":"UTC","APOAPSIS":"541.530","NORAD_CAT_ID":"51750","LAUNCH_DATE":"2022-02-21","PERIOD":"95.440","RA_OF_ASC_NODE":"108.1758","REF_FRAME":"TEME","PERIAPSIS":"538.150"}];
